NORAD_CAT_ID,OBJECT_NAME,OBJECT_TYPE,EPOCH,MEAN_MOTION,ECCENTRICITY,INCLINATION,RA_OF_ASC_NODE,ARG_OF_PERICENTER,MEAN_ANOMALY,BSTAR,MEAN_MOTION_DOT,MEAN_MOTION_DDOT,TLE_LINE0,TLE_LINE1,TLE_LINE2,SEMIMAJOR_AXIS,PERIOD,APOGEE,PERIGEE,DECAYED
54204.0,STARLINK-5241,PAYLOAD,2024-07-13 05:55:27,15.08840346,0.0001207,53.2161,187.1394,90.8646,269.2485,3.0872e-05,2.04e-06,0.0,0 STARLINK-5241,1 54204U 22141AZ  24195.24684076  .00000204  00000-0  30872-4 0  9993,2 54204  53.2161 187.1394 0001207  90.8646 269.2485 15.08840346 94986,6917.879,95.438,540.579,538.909,0.0
54204.0,STARLINK-5241,PAYLOAD,2024-07-13 09:06:13,15.08843057,0.0001246,53.2159,186.5448,89.9847,270.1288,5.4703e-05,5.83e-06,0.0,0 STARLINK-5241,1 54204U 22141AZ  24195.37931830  .00000583  00000-0  54703-4 0  9999,2 54204  53.2159 186.5448 0001246  89.9847 270.1288 15.08843057 94772,6917.871,95.437,540.598,538.874,0.0
54204.0,STARLINK-5241,PAYLOAD,2024-07-13 17:03:08,15.08844934,0.0001245,53.2159,185.0581,89.592,270.5215,6.2629e-05,7.09e-06,0.0,0 STARLINK-5241,1 54204U 22141AZ  24195.71051641  .00000709  00000-0  62629-4 0  9996,2 54204  53.2159 185.0581 0001245  89.5920 270.5215 15.08844934 94826,6917.865,95.437,540.592,538.869,0.0
54204.0,STARLINK-5241,PAYLOAD,2024-07-14 08:57:00,15.08843014,0.0001347,53.2165,182.0838,95.3511,264.7635,7.4086e-05,8.91e-06,0.0,0 STARLINK-5241,1 54204U 22141AZ  24196.37291708  .00000891  00000-0  74086-4 0  9991,2 54204  53.2165 182.0838 0001347  95.3511 264.7635 15.08843014 95155,6917.871,95.437,540.668,538.804,0.0
54204.0,STARLINK-5241,PAYLOAD,2024-07-15 08:47:47,15.08840559,0.0001346,53.217,177.6228,96.2818,263.8327,5.5352e-05,5.93e-06,0.0,0 STARLINK-5241,1 54204U 22141AZ  24197.36651865  .00000593  00000-0  55352-4 0  9999,2 54204  53.2170 177.6228 0001346  96.2818 263.8327 15.08840559 95073,6917.879,95.438,540.675,538.813,0.0
54204.0,STARLINK-5241,PAYLOAD,2024-07-16 05:27:48,15.08837317,0.0001306,53.2167,173.7567,95.2324,264.8817,3.8037e-05,3.17e-06,0.0,0 STARLINK-5241,1 54204U 22141AZ  24198.22764136  .00000317  00000-0  38037-4 0  9996,2 54204  53.2167 173.7567 0001306  95.2324 264.8817 15.08837317 95207,6917.889,95.438,540.657,538.85,0.0
54204.0,STARLINK-5241,PAYLOAD,2024-07-17 05:18:36,15.08829527,0.0001423,53.2175,169.3002,97.7627,262.3527,-4.0622e-07,-2.94e-06,0.0,0 STARLINK-5241,1 54204U 22141AZ  24199.22125010 -.00000294  00000-0 -40622-6 0  9990,2 54204  53.2175 169.3002 0001423  97.7627 262.3527 15.08829527 95580,6917.912,95.438,540.762,538.793,0.0
54204.0,STARLINK-5241,PAYLOAD,2024-07-17 06:53:59,15.08832331,0.0001385,53.2175,169.0019,93.9776,266.1375,9.1503e-06,-1.42e-06,0.0,0 STARLINK-5241,1 54204U 22141AZ  24199.28748843 -.00000142  00000-0  91503-5 0  9995,2 54204  53.2175 169.0019 0001385  93.9776 266.1375 15.08832331 95361,6917.904,95.438,540.727,538.811,0.0
54204.0,STARLINK-5241,PAYLOAD,2024-07-17 14:50:54,15.08838127,0.0001411,53.2177,167.5157,94.8599,265.2554,7.8038e-05,9.54e-06,0.0,0 STARLINK-5241,1 54204U 22141AZ  24199.61868572  .00000954  00000-0  78038-4 0  9991,2 54204  53.2177 167.5157 0001411  94.8599 265.2554 15.08838127 95641,6917.886,95.438,540.727,538.775,0.0
54204.0,STARLINK-5241,PAYLOAD,2024-07-18 06:44:46,15.08837966,0.0001547,53.2182,164.5439,97.9811,262.1357,0.00010642,1.406e-05,0.0,0 STARLINK-5241,1 54204U 22141AZ  24200.28108910  .00001406  00000-0  10642-3 0  9999,2 54204  53.2182 164.5439 0001547  97.9811 262.1357 15.08837966 95511,6917.887,95.438,540.822,538.681,0.0
54204.0,STARLINK-5241,PAYLOAD,2024-07-18 14:41:40,15.0885269,0.0001474,53.2182,163.0553,89.684,270.4321,0.00017149,2.443e-05,0.0,0 STARLINK-5241,1 54204U 22141AZ  24200.61227833  .00002443  00000-0  17149-3 0  9993,2 54204  53.2182 163.0553 0001474  89.6840 270.4321 15.08852690 95795,6917.842,95.437,540.726,538.687,0.0
54204.0,STARLINK-5241,PAYLOAD,2024-07-19 05:00:10,15.08836536,0.000151,53.2176,160.3785,83.9371,276.1793,0.00012274,1.666e-05,0.0,0 STARLINK-5241,1 54204U 22141AZ  24201.20845288  .00001666  00000-0  12274-3 0  9999,2 54204  53.2176 160.3785 0001510  83.9371 276.1793 15.08836536 95889,6917.891,95.438,540.801,538.711,0.0
54204.0,STARLINK-5241,PAYLOAD,2024-07-19 14:32:28,15.08844752,0.0001631,53.2181,158.5961,90.1908,269.9272,0.00014363,1.999e-05,0.0,0 STARLINK-5241,1 54204U 22141AZ  24201.60588670  .00001999  00000-0  14363-3 0  9992,2 54204  53.2181 158.5961 0001631  90.1908 269.9272 15.08844752 95713,6917.866,95.437,540.859,538.603,0.0
54204.0,STARLINK-5241,PAYLOAD,2024-07-20 06:26:19,15.08845946,0.0001339,53.2155,155.6138,100.2122,259.9021,0.00010815,1.434e-05,0.0,0 STARLINK-5241,1 54204U 22141AZ  24202.26828554  .00001434  00000-0  10815-3 0  9995,2 54204  53.2155 155.6138 0001339 100.2122 259.9021 15.08845946 95812,6917.862,95.437,540.654,538.801,0.0
54204.0,STARLINK-5241,PAYLOAD,2024-07-21 03:06:21,15.0883963,0.000161,53.2185,151.7504,98.7258,261.3917,0.00012905,1.766e-05,0.0,0 STARLINK-5241,1 54204U 22141AZ  24203.12941033  .00001766  00000-0  12905-3 0  9999,2 54204  53.2185 151.7504 0001610  98.7258 261.3917 15.08839630 96176,6917.882,95.438,540.86,538.633,0.0
54204.0,STARLINK-5241,PAYLOAD,2024-07-22 02:57:08,15.08840493,0.0001345,53.2163,147.293,95.8235,264.291,4.6096e-05,4.46e-06,0.0,0 STARLINK-5241,1 54204U 22141AZ  24204.12301166  .00000446  00000-0  46096-4 0  9990,2 54204  53.2163 147.2930 0001345  95.8235 264.2910 15.08840493 96098,6917.879,95.438,540.674,538.813,0.0
54204.0,STARLINK-5241,PAYLOAD,2024-07-23 02:47:55,15.08845743,0.0001378,53.2163,142.8332,100.9405,259.1743,0.00021745,3.175e-05,0.0,0 STARLINK-5241,1 54204U 22141AZ  24205.11660936  .00003175  00000-0  21745-3 0  9998,2 54204  53.2163 142.8332 0001378 100.9405 259.1743 15.08845743 96470,6917.863,95.437,540.681,538.775,0.0
54204.0,STARLINK-5241,PAYLOAD,2024-07-23 12:20:13,15.08860119,0.0001347,53.2168,141.0517,96.4398,263.6747,0.00037069,5.62e-05,0.0,0 STARLINK-5241,1 54204U 22141AZ  24205.51404056  .00005620  00000-0  37069-3 0  9994,2 54204  53.2168 141.0517 0001347  96.4398 263.6747 15.08860119 96532,6917.819,95.436,540.616,538.752,0.0
54204.0,STARLINK-5241,PAYLOAD,2024-07-23 20:17:09,15.08846901,0.0003091,53.2171,139.5683,95.3648,264.7696,0.00017861,2.556e-05,0.0,0 STARLINK-5241,1 54204U 22141AZ  24205.84525232  .00002556  00000-0  17861-3 0  9993,2 54204  53.2171 139.5683 0003091  95.3648 264.7696 15.08846901 96589,6917.859,95.437,541.863,537.586,0.0
54204.0,STARLINK-5241,PAYLOAD,2024-07-23 21:52:33,15.08815984,0.0001295,53.2168,139.2667,95.6095,264.5045,-0.00026532,-4.505e-05,0.0,0 STARLINK-5241,1 54204U 22141AZ  24205.91150394 -.00004505  00000-0 -26532-3 0  9997,2 54204  53.2168 139.2667 0001295  95.6095 264.5045 15.08815984 96366,6917.954,95.439,540.715,538.923,0.0
54204.0,STARLINK-5241,PAYLOAD,2024-07-24 02:38:43,15.08826623,0.000134,53.2156,138.375,110.1534,249.9602,-9.9856e-05,-1.876e-05,0.0,0 STARLINK-5241,1 54204U 22141AZ  24206.11022066 -.00001876  00000-0 -99856-4 0  9992,2 54204  53.2156 138.3750 0001340 110.1534 249.9602 15.08826623 96625,6917.921,95.438,540.713,538.859,0.0
54204.0,STARLINK-5241,PAYLOAD,2024-07-24 18:32:33,15.08845267,0.0001842,53.216,135.3998,135.4708,224.6432,-0.00028095,-4.757e-05,0.0,0 STARLINK-5241,1 54204U 22141AZ  24206.77261276 -.00004757  00000-0 -28095-3 0  9999,2 54204  53.2160 135.3998 0001842 135.4708 224.6432 15.08845267 96728,6917.864,95.437,541.004,538.455,0.0
54204.0,STARLINK-5241,PAYLOAD,2024-07-25 00:54:06,15.08845276,0.0001245,53.2157,134.211,107.9058,252.207,0.00049828,7.652e-05,0.0,0 STARLINK-5241,1 54204U 22141AZ  24207.03757852  .00007652  00000-0  49828-3 0  9991,2 54204  53.2157 134.2110 0001245 107.9058 252.2070 15.08845276 96531,6917.864,95.437,540.591,538.868,0.0
54204.0,STARLINK-5241,PAYLOAD,2024-07-26 03:55:40,15.08851913,0.000112,53.2149,129.1554,107.285,252.8264,0.00045625,6.983e-05,0.0,0 STARLINK-5241,1 54204U 22141AZ  24208.16365751  .00006983  00000-0  45625-3 0  9996,2 54204  53.2149 129.1554 0001120 107.2850 252.8264 15.08851913 96932,6917.844,95.437,540.484,538.934,0.0
54204.0,STARLINK-5241,PAYLOAD,2024-07-26 11:52:35,15.08862015,0.0001397,53.2148,127.6651,83.1642,276.9509,0.0012913,0.00020335,0.0,0 STARLINK-5241,1 54204U 22141AZ  24208.49485429  .00020335  00000-0  12913-2 0  9997,2 54204  53.2148 127.6651 0001397  83.1642 276.9509 15.08862015 96988,6917.813,95.436,540.645,538.712,0.0
54204.0,STARLINK-5241,PAYLOAD,2024-07-27 22:51:04,15.08821323,0.000128,53.2143,121.1255,61.275,298.837,0.0012793,0.0002012,0.0,0 STARLINK-5241,1 54204U 22141AZ  24209.95213925  .00020120  00000-0  12793-2 0  9997,2 54204  53.2143 121.1255 0001280  61.2750 298.8370 15.08821323 96975,6917.937,95.439,540.688,538.917,0.0
54204.0,STARLINK-5241,PAYLOAD,2024-07-28 05:12:37,15.08827746,0.0001574,53.2158,119.9368,79.6297,280.4872,0.0010555,0.00016545,0.0,0 STARLINK-5241,1 54204U 22141AZ  24210.21710196  .00016545  00000-0  10555-2 0  9990,2 54204  53.2158 119.9368 0001574  79.6297 280.4872 15.08827746 97246,6917.918,95.438,540.872,538.694,0.0
54204.0,STARLINK-5241,PAYLOAD,2024-07-28 22:41:52,15.08837005,0.0001627,53.2162,116.6649,98.0199,262.0978,0.00054262,8.358e-05,0.0,0 STARLINK-5241,1 54204U 22141AZ  24210.94574492  .00008358  00000-0  54262-3 0  9994,2 54204  53.2162 116.6649 0001627  98.0199 262.0978 15.08837005 97121,6917.89,95.438,540.88,538.629,0.0
54204.0,STARLINK-5241,PAYLOAD,2024-07-29 00:17:15,15.08838656,0.0001628,53.2162,116.3674,98.5769,261.5408,0.00055556,8.564e-05,0.0,0 STARLINK-5241,1 54204U 22141AZ  24211.01198479  .00008564  00000-0  55556-3 0  9996,2 54204  53.2162 116.3674 0001628  98.5769 261.5408 15.08838656 97366,6917.884,95.438,540.876,538.623,0.0
54204.0,STARLINK-5241,PAYLOAD,2024-07-29 20:57:16,15.08844057,0.0001642,53.2166,112.5017,98.1709,261.9469,0.00036738,5.564e-05,0.0,0 STARLINK-5241,1 54204U 22141AZ  24211.87310511  .00005564  00000-0  36738-3 0  9991,2 54204  53.2166 112.5017 0001642  98.1709 261.9469 15.08844057 97492,6917.868,95.437,540.869,538.597,0.0
